OBJECT_NAME,OBJECT_ID,EPOCH,MEAN_MOTION,ECCENTRICITY,INCLINATION,RA_OF_ASC_NODE,ARG_OF_PERICENTER,MEAN_ANOMALY,EPHEMERIS_TYPE,CLASSIFICATION_TYPE,NORAD_CAT_ID,ELEMENT_SET_NO,REV_AT_EPOCH,BSTAR,MEAN_MOTION_DOT,MEAN_MOTION_DDOT
MANDRAKE 2 BAKER,2021-059AF,2026-07-08T23:27:19.120032,15.60721590,.00023106,97.7001,24.4643,248.4031,111.6980,0,U,48908,999,28069,.23827107E-3,.19683E-3,0
PACE-1,2021-059AG,2026-07-09T13:07:39.352800,15.84282886,.0003148,97.6751,31.2824,192.6668,167.4522,0,U,48909,999,28133,.40725E-3,.92491E-3,0
YAM-3,2021-059AN,2026-07-09T19:25:20.583264,15.49064534,.000376,97.6998,19.2513,270.4401,89.6418,0,U,48915,999,28049,.17107E-3,.9177E-4,0
FARADAY_PHOENIX,2021-059AX,2026-07-08T11:24:02.258496,15.85017527,.00054025,97.6781,29.9740,217.7060,142.3832,0,U,48924,999,28102,.60440555E-3,.143131E-2,0
DEMO8 (TENZING),2021-059CA,2026-07-08T23:40:04.109952,15.55849190,.0005376,97.7021,25.0780,258.9857,101.0792,0,U,48951,999,28069,.22064623E-3,.15166E-3,0
FENGYUN 3E,2021-062A,2026-07-09T19:43:03.340416,14.19905275,.0002495,98.7504,193.9770,48.5741,311.5650,0,U,49008,999,25979,-.11795E-3,-.294E-5,0
ISS (NAUKA),2021-066A,2026-07-09T16:50:48.208704,15.48959671,.0006668,51.6304,188.6620,275.8666,84.1562,0,U,49044,999,61029,.1058E-3,.5376E-4,0
STARLINK-3100,2021-082Q,2026-07-09T12:55:16.659264,14.98331824,.0003147,70.0002,347.2222,268.6708,91.4091,0,U,49144,999,26423,.23624E-4,.189E-5,0
CUTE,2021-088D,2026-07-09T00:54:16.424640,16.06100715,.00026394,97.4026,291.6163,338.2434,21.8735,0,U,49263,999,26604,.54217224E-3,.392812E-2,.73988025E-4
2021-091B,2021-091B,2026-07-09T20:36:18.237024,15.18665592,.0012499,97.4481,18.0901,328.4262,31.6221,0,U,49316,999,26242,.10818E-3,.2177E-4,0
SDGSAT 1,2021-100A,2026-07-09T21:20:03.412032,15.19218748,.0009166,97.2622,236.9703,181.0845,179.0372,0,U,49387,999,25936,.49835E-4,.985E-5,0
TEIKYOSAT-4 (OORURI),2021-102B,2026-07-09T15:47:54.007008,15.09586297,.00112,97.3664,219.2679,208.5917,151.4700,0,U,49396,999,25611,.67455E-4,.1024E-4,0
Z-SAT,2021-102E,2026-07-09T20:50:58.099200,15.18435161,.0017083,97.3323,225.5037,161.9323,198.2522,0,U,49399,999,25688,.11566E-3,.2323E-4,0
HIBARI,2021-102F,2026-07-08T15:02:11.626944,15.32181947,.00132026,97.3229,235.2894,121.5381,238.7152,0,U,49400,999,25747,.2616605E-3,.8075E-4,0
KOSEN-1,2021-102H,2026-07-09T16:25:10.665408,15.27161211,.0015202,97.3178,232.4066,124.8714,235.3957,0,U,49402,999,25745,.20304E-3,.5351E-4,0
GLOBAL-14,2021-106A,2026-07-09T14:55:46.408224,15.51631327,.0016751,42.0023,157.6429,186.3807,173.6826,0,U,49469,999,26161,.30778E-3,.18589E-3,0
GAOFEN-3 02,2021-109A,2026-07-09T19:18:58.970880,14.42219102,.0001422,98.4097,198.5801,298.2170,61.8876,0,U,49495,999,24357,-.33547E-4,-.154E-5,0
GLOBAL-12,2021-115BA,2026-07-08T14:45:26.332704,15.55014776,.00026884,53.1955,301.4080,67.9164,292.2133,0,U,49772,999,25923,.41449195E-3,.27922E-3,0
GLOBAL-13,2021-115BB,2026-07-09T20:50:08.363040,15.46968577,.0001243,53.1977,306.6969,154.5770,205.5300,0,U,49773,999,25927,.32469E-3,.1624E-3,0
GLOBAL-17,2021-120A,2026-07-09T15:55:45.829632,15.53510688,.0013676,41.9947,275.2420,48.0874,312.1135,0,U,49949,999,25839,.34803E-3,.22529E-3,0
GLOBAL-16,2021-120B,2026-07-09T13:54:26.180352,15.51292974,.0011963,41.9954,279.9058,36.3554,323.8101,0,U,49950,999,25832,.33357E-3,.19876E-3,0
XW-3 (CAS-9),2021-131B,2026-07-09T19:46:28.164576,14.41379055,.0004913,98.4979,283.0921,43.9982,316.1598,0,U,50466,999,23837,.11065E-3,.314E-5,0
ION SCV-004,2022-002K,2026-07-09T00:08:00.230208,15.30667843,.00055339,97.2823,247.2553,275.8672,84.1938,0,U,50993,999,24863,.11489783E-3,.3331E-4,0
ETV-A1,2022-002CE,2026-07-09T19:22:33.779424,15.41157664,.0003517,97.2870,257.0528,251.5305,108.5560,0,U,51060,999,24932,.19719E-3,.809E-4,0
BRO-5,2022-002CF,2026-07-09T19:27:57.076128,15.48661710,.000482,97.2989,264.6984,224.0023,136.0845,0,U,51061,999,24975,.46125E-3,.24625E-3,0
LUDI TANCE 1-01A (L-SAR 01A),2022-007A,2026-07-09T20:04:43.407264,14.88415431,.0001595,97.8109,197.9348,90.7397,269.4002,0,U,51284,999,24184,.48704E-4,.397E-5,0
LUDI TANCE 1-01B (L-SAR 01B),2022-018A,2026-07-09T20:53:06.437760,14.88409842,.0001632,97.8108,197.9658,91.8296,268.3107,0,U,51822,999,23708,.45082E-4,.364E-5,0
2022-023F,2022-023F,2026-07-09T20:56:55.065984,15.17911770,.013261,63.4440,196.3618,341.6567,17.9786,0,U,51951,999,24115,.22576E-3,.5535E-4,0
