MANDRAKE 2 BAKER        
1 48908U 21059AF  26189.97730463  .00019683  00000+0  23827-3 0  9992
2 48908  97.7001  24.4643 0002310 248.4031 111.6980 15.60721590280693
PACE-1                  
1 48909U 21059AG  26190.54698325  .00092491  00000+0  40725-3 0  9992
2 48909  97.6751  31.2824 0003148 192.6668 167.4522 15.84282886281337
YAM-3                   
1 48915U 21059AN  26190.80926601  .00009177  00000+0  17107-3 0  9996
2 48915  97.6998  19.2513 0003760 270.4401  89.6418 15.49064534280492
FARADAY_PHOENIX         
1 48924U 21059AX  26189.47502614  .00143131  00000+0  60441-3 0  9999
2 48924  97.6781  29.9740 0005402 217.7060 142.3832 15.85017527281029
DEMO8 (TENZING)         
1 48951U 21059CA  26189.98615868  .00015166  00000+0  22065-3 0  9997
2 48951  97.7021  25.0780 0005376 258.9857 101.0792 15.55849190280694
FENGYUN 3E              
1 49008U 21062A   26190.82156644 -.00000294  00000+0 -11795-3 0  9998
2 49008  98.7504 193.9770 0002495  48.5741 311.5650 14.19905275259797
ISS (NAUKA)             
1 49044U 21066A   26190.70194686  .00005376  00000+0  10580-3 0  9992
2 49044  51.6304 188.6620 0006668 275.8666  84.1562 15.48959671610298
STARLINK-3100           
1 49144U 21082Q   26190.53838726  .00000189  00000+0  23624-4 0  9993
2 49144  70.0002 347.2222 0003147 268.6708  91.4091 14.98331824264231
CUTE                    
1 49263U 21088D   26190.03769010  .00392812  73988-4  54217-3 0  9993
2 49263  97.4026 291.6163 0002639 338.2434  21.8735 16.06100715266040
2021-091B               
1 49316U 21091B   26190.85854441  .00002177  00000+0  10818-3 0  9990
2 49316  97.4481  18.0901 0012499 328.4262  31.6221 15.18665592262428
SDGSAT 1                
1 49387U 21100A   26190.88892838  .00000985  00000+0  49835-4 0  9991
2 49387  97.2622 236.9703 0009166 181.0845 179.0372 15.19218748259360
TEIKYOSAT-4 (OORURI)    
1 49396U 21102B   26190.65826397  .00001024  00000+0  67455-4 0  9998
2 49396  97.3664 219.2679 0011200 208.5917 151.4700 15.09586297256115
Z-SAT                   
1 49399U 21102E   26190.86872800  .00002323  00000+0  11566-3 0  9998
2 49399  97.3323 225.5037 0017083 161.9323 198.2522 15.18435161256884
HIBARI                  
1 49400U 21102F   26189.62652346  .00008075  00000+0  26166-3 0  9996
2 49400  97.3229 235.2894 0013202 121.5381 238.7152 15.32181947257477
KOSEN-1                 
1 49402U 21102H   26190.68415122  .00005351  00000+0  20304-3 0  9997
2 49402  97.3178 232.4066 0015202 124.8714 235.3957 15.27161211257450
GLOBAL-14               
1 49469U 21106A   26190.62206491  .00018589  00000+0  30778-3 0  9998
2 49469  42.0023 157.6429 0016751 186.3807 173.6826 15.51631327261615
GAOFEN-3 02             
1 49495U 21109A   26190.80484920 -.00000154  00000+0 -33547-4 0  9994
2 49495  98.4097 198.5801 0001422 298.2170  61.8876 14.42219102243573
GLOBAL-12               
1 49772U 21115BA  26189.61488811  .00027922  00000+0  41449-3 0  9998
2 49772  53.1955 301.4080 0002688  67.9164 292.2133 15.55014776259236
GLOBAL-13               
1 49773U 21115BB  26190.86815235  .00016240  00000+0  32469-3 0  9995
2 49773  53.1977 306.6969 0001243 154.5770 205.5300 15.46968577259270
GLOBAL-17               
1 49949U 21120A   26190.66372488  .00022529  00000+0  34803-3 0  9993
2 49949  41.9947 275.2420 0013676  48.0874 312.1135 15.53510688258392
GLOBAL-16               
1 49950U 21120B   26190.57946968  .00019876  00000+0  33357-3 0  9999
2 49950  41.9954 279.9058 0011963  36.3554 323.8101 15.51292974258320
XW-3 (CAS-9)            
1 50466U 21131B   26190.82393709  .00000314  00000+0  11065-3 0  9991
2 50466  98.4979 283.0921 0004913  43.9982 316.1598 14.41379055238371
ION SCV-004             
1 50993U 22002K   26190.00555822  .00003331  00000+0  11490-3 0  9994
2 50993  97.2823 247.2553 0005533 275.8672  84.1938 15.30667843248639
ETV-A1                  
1 51060U 22002CE  26190.80733541  .00008090  00000+0  19719-3 0  9993
2 51060  97.2870 257.0528 0003517 251.5305 108.5560 15.41157664249328
BRO-5                   
1 51061U 22002CF  26190.81107727  .00024625  00000+0  46125-3 0  9999
2 51061  97.2989 264.6984 0004820 224.0023 136.0845 15.48661710249758
LUDI TANCE 1-01A (L-SA*)
1 51284U 22007A   26190.83661351  .00000397  00000+0  48704-4 0  9997
2 51284  97.8109 197.9348 0001595  90.7397 269.4002 14.88415431241843
LUDI TANCE 1-01B (L-SA*)
1 51822U 22018A   26190.87021340  .00000364  00000+0  45082-4 0  9999
2 51822  97.8108 197.9658 0001632  91.8296 268.3107 14.88409842237080
2022-023F               
1 51951U 22023F   26190.87285956  .00005535  00000+0  22576-3 0  9990
2 51951  63.4440 196.3618 0132610 341.6567  17.9786 15.17911770241153
